start=new Date('2023-06-27T00:00:00.000Z').valueOf();
sats=[{"CLASSIFICATION_TYPE":"U","RA_OF_ASC_NODE":"82.4318","TLE_LINE2":"2 51724  53.2160  82.4318 0001057  84.5077 275.6036 15.08846598 75395","FILE":"3943411","EPOCH":"2023-06-26T03:11:46.345920","BSTAR":"0.00004818800000","REF_FRAME":"TEME","MEAN_ANOMALY":"275.6036","NORAD_CAT_ID":"51724","DECAY_DATE":null,"ARG_OF_PERICENTER":"84.5077","ELEMENT_SET_NO":"999","OBJECT_NAME":"STARLINK-3529","PERIOD":"95.437","MEAN_MOTION":"15.08846598","TIME_SYSTEM":"UTC","SEMIMAJOR_AXIS":"6917.860","APOAPSIS":"540.456","ECCENTRICITY":"0.00010570","SITE":"AFETR","PERIAPSIS":"538.994","MEAN_MOTION_DOT":"0.00000479","REV_AT_EPOCH":"7539","TLE_LINE1":"1 51724U 22016L   23177.13317530  .00000479  00000-0  48188-4 0  9996","OBJECT_TYPE":"PAYLOAD","CENTER_NAME":"EARTH","LAUNCH_DATE":"2022-02-21","RCS_SIZE":"LARGE","COUNTRY_CODE":"US","EPHEMERIS_TYPE":"0","OBJECT_ID":"2022-016L","INCLINATION":"53.2160","GP_ID":"234567832","MEAN_ELEMENT_THEORY":"SGP4","MEAN_MOTION_DDOT":"0.0000000000000"},{"ECCENTRICITY":"0.00013420","APOAPSIS":"540.653","SEMIMAJOR_AXIS":"6917.859","TIME_SYSTEM":"UTC","MEAN_MOTION_DOT":"0.00000794","PERIAPSIS":"538.796","SITE":"AFETR","CENTER_NAME":"EARTH","LAUNCH_DATE":"2022-02-21","OBJECT_TYPE":"PAYLOAD","REV_AT_EPOCH":"7544","TLE_LINE1":"1 51725U 22016M   23177.01173558  .00000794  00000-0  67942-4 0  9993","COUNTRY_CODE":"US","RCS_SIZE":"LARGE","EPHEMERIS_TYPE":"0","INCLINATION":"53.2172","OBJECT_ID":"2022-016M","MEAN_ELEMENT_THEORY":"SGP4","MEAN_MOTION_DDOT":"0.0000000000000","GP_ID":"234560812","FILE":"3943100","TLE_LINE2":"2 51725  53.2172  82.9771 0001342  88.2131 271.9015 15.08846922 75449","RA_OF_ASC_NODE":"82.9771","CLASSIFICATION_TYPE":"U","BSTAR":"0.00006794200000","EPOCH":"2023-06-26T00:16:53.954112","REF_FRAME":"TEME","DECAY_DATE":null,"MEAN_ANOMALY":"271.9015","NORAD_CAT_ID":"51725","OBJECT_NAME":"STARLINK-3522","ELEMENT_SET_NO":"999","ARG_OF_PERICENTER":"88.2131","MEAN_MOTION":"15.08846922","PERIOD":"95.437"},{"MEAN_MOTION":"15.08837419","PERIOD":"95.438","OBJECT_NAME":"STARLINK-3527","ELEMENT_SET_NO":"999","ARG_OF_PERICENTER":"93.4402","DECAY_DATE":null,"NORAD_CAT_ID":"51726","MEAN_ANOMALY":"266.6719","REF_FRAME":"TEME","BSTAR":"0.00006279700000","EPOCH":"2023-06-26T16:54:28.779264","FILE":"3943678","TLE_LINE2":"2 51726  53.2160  69.8688 0001127  93.4402 266.6719 15.08837419 75621","RA_OF_ASC_NODE":"69.8688","CLASSIFICATION_TYPE":"U","MEAN_MOTION_DDOT":"0.0000000000000","MEAN_ELEMENT_THEORY":"SGP4","GP_ID":"234574724","INCLINATION":"53.2160","OBJECT_ID":"2022-016N","EPHEMERIS_TYPE":"0","COUNTRY_CODE":"US","RCS_SIZE":"LARGE","CENTER_NAME":"EARTH","LAUNCH_DATE":"2022-02-21","OBJECT_TYPE":"PAYLOAD","TLE_LINE1":"1 51726U 22016N   23177.70449976  .00000712  00000-0  62797-4 0  9993","REV_AT_EPOCH":"7562","MEAN_MOTION_DOT":"0.00000712","PERIAPSIS":"538.974","SITE":"AFETR","ECCENTRICITY":"0.00011270","APOAPSIS":"540.533","SEMIMAJOR_AXIS":"6917.888","TIME_SYSTEM":"UTC"},{"REF_FRAME":"TEME","CLASSIFICATION_TYPE":"U","TLE_LINE2":"2 51727  53.2162  85.3875 0001155  86.3329 273.7795 15.08842312 75299","FILE":"3942517","RA_OF_ASC_NODE":"85.3875","EPOCH":"2023-06-25T11:23:13.025184","BSTAR":"-0.00001118200000","PERIOD":"95.437","MEAN_MOTION":"15.08842312","MEAN_ANOMALY":"273.7795","NORAD_CAT_ID":"51727","DECAY_DATE":null,"ARG_OF_PERICENTER":"86.3329","ELEMENT_SET_NO":"999","OBJECT_NAME":"STARLINK-3532","REV_AT_EPOCH":"7529","TLE_LINE1":"1 51727U 22016P   23176.47445631 -.00000466  00000-0 -11182-4 0  9991","OBJECT_TYPE":"PAYLOAD","LAUNCH_DATE":"2022-02-21","CENTER_NAME":"EARTH","TIME_SYSTEM":"UTC","SEMIMAJOR_AXIS":"6917.873","APOAPSIS":"540.537","ECCENTRICITY":"0.00011550","SITE":"AFETR","PERIAPSIS":"538.939","MEAN_MOTION_DOT":"-0.00000466","OBJECT_ID":"2022-016P","INCLINATION":"53.2162","GP_ID":"234546524","MEAN_MOTION_DDOT":"0.0000000000000","MEAN_ELEMENT_THEORY":"SGP4","RCS_SIZE":"LARGE","COUNTRY_CODE":"US","EPHEMERIS_TYPE":"0"},{"REF_FRAME":"TEME","EPOCH":"2023-06-26T16:43:53.080032","BSTAR":"0.00008660500000","CLASSIFICATION_TYPE":"U","FILE":"3943678","TLE_LINE2":"2 51728  53.2167  69.9024 0001214  84.4435 275.6695 15.08838595 75694","RA_OF_ASC_NODE":"69.9024","MEAN_MOTION":"15.08838595","PERIOD":"95.438","ELEMENT_SET_NO":"999","ARG_OF_PERICENTER":"84.4435","OBJECT_NAME":"STARLINK-3448","NORAD_CAT_ID":"51728","MEAN_ANOMALY":"275.6695","DECAY_DATE":null,"OBJECT_TYPE":"PAYLOAD","REV_AT_EPOCH":"7569","TLE_LINE1":"1 51728U 22016Q   23177.69714213  .00001091  00000-0  86605-4 0  9997","CENTER_NAME":"EARTH","LAUNCH_DATE":"2022-02-21","SITE":"AFETR","MEAN_MOTION_DOT":"0.00001091","PERIAPSIS":"538.910","SEMIMAJOR_AXIS":"6917.885","TIME_SYSTEM":"UTC","APOAPSIS":"540.590","ECCENTRICITY":"0.00012140","GP_ID":"234574219","MEAN_MOTION_DDOT":"0.0000000000000","MEAN_ELEMENT_THEORY":"SGP4","OBJECT_ID":"2022-016Q","INCLINATION":"53.2167","EPHEMERIS_TYPE":"0","COUNTRY_CODE":"US","RCS_SIZE":"LARGE"},{"EPHEMERIS_TYPE":"0","COUNTRY_CODE":"US","RCS_SIZE":"LARGE","MEAN_MOTION_DDOT":"0.0000000000000","MEAN_ELEMENT_THEORY":"SGP4","GP_ID":"234574277","INCLINATION":"53.2137","OBJECT_ID":"2022-016R","MEAN_MOTION_DOT":"-0.00000088","PERIAPSIS":"538.603","SITE":"AFETR","APOAPSIS":"540.904","ECCENTRICITY":"0.00016630","SEMIMAJOR_AXIS":"6917.888","TIME_SYSTEM":"UTC","LAUNCH_DATE":"2022-02-21","CENTER_NAME":"EARTH","OBJECT_TYPE":"PAYLOAD","REV_AT_EPOCH":"7569","TLE_LINE1":"1 51729U 22016R   23177.70818202 -.00000088  00000-0  12547-4 0  9993","OBJECT_NAME":"STARLINK-3523","ARG_OF_PERICENTER":"85.4826","ELEMENT_SET_NO":"999","DECAY_DATE":null,"NORAD_CAT_ID":"51729","MEAN_ANOMALY":"274.6356","MEAN_MOTION":"15.08837443","PERIOD":"95.438","BSTAR":"0.00001254700000","EPOCH":"2023-06-26T16:59:46.926528","TLE_LINE2":"2 51729  53.2137  69.8528 0001663  85.4826 274.6356 15.08837443 75697","FILE":"3943693","RA_OF_ASC_NODE":"69.8528","CLASSIFICATION_TYPE":"U","REF_FRAME":"TEME"},{"PERIOD":"95.438","MEAN_MOTION":"15.08834102","OBJECT_NAME":"STARLINK-3530","ARG_OF_PERICENTER":"80.2908","ELEMENT_SET_NO":"999","DECAY_DATE":null,"MEAN_ANOMALY":"279.8235","NORAD_CAT_ID":"51730","REF_FRAME":"TEME","BSTAR":"0.00012376000000","EPOCH":"2023-06-26T16:33:17.433504","RA_OF_ASC_NODE":"69.9378","TLE_LINE2":"2 51730  53.2172  69.9378 0001332  80.2908 279.8235 15.08834102 75624","FILE":"3943678","CLASSIFICATION_TYPE":"U","MEAN_MOTION_DDOT":"0.0000000000000","MEAN_ELEMENT_THEORY":"SGP4","GP_ID":"234574227","INCLINATION":"53.2172","OBJECT_ID":"2022-016S","EPHEMERIS_TYPE":"0","RCS_SIZE":"LARGE","COUNTRY_CODE":"US","LAUNCH_DATE":"2022-02-21","CENTER_NAME":"EARTH","TLE_LINE1":"1 51730U 22016S   23177.68978511  .00001682  00000-0  12376-3 0  9991","REV_AT_EPOCH":"7562","OBJECT_TYPE":"PAYLOAD","PERIAPSIS":"538.842","MEAN_MOTION_DOT":"0.00001682","SITE":"AFETR","ECCENTRICITY":"0.00013320","APOAPSIS":"540.685","SEMIMAJOR_AXIS":"6917.898","TIME_SYSTEM":"UTC"},{"REF_FRAME":"TEME","RA_OF_ASC_NODE":"69.8844","TLE_LINE2":"2 51731  53.2173  69.8844 0001154  88.9807 271.1317 15.08836675 75676","FILE":"3943679","CLASSIFICATION_TYPE":"U","BSTAR":"0.00008131100000","EPOCH":"2023-06-26T16:49:10.954272","PERIOD":"95.438","MEAN_MOTION":"15.08836675","DECAY_DATE":null,"MEAN_ANOMALY":"271.1317","NORAD_CAT_ID":"51731","OBJECT_NAME":"STARLINK-3514","ELEMENT_SET_NO":"999","ARG_OF_PERICENTER":"88.9807","LAUNCH_DATE":"2022-02-21","CENTER_NAME":"EARTH","REV_AT_EPOCH":"7567","TLE_LINE1":"1 51731U 22016T   23177.70082123  .00001006  00000-0  81311-4 0  9996","OBJECT_TYPE":"PAYLOAD","APOAPSIS":"540.554","ECCENTRICITY":"0.00011540","SEMIMAJOR_AXIS":"6917.891","TIME_SYSTEM":"UTC","PERIAPSIS":"538.957","MEAN_MOTION_DOT":"0.00001006","SITE":"AFETR","INCLINATION":"53.2173","OBJECT_ID":"2022-016T","MEAN_ELEMENT_THEORY":"SGP4","MEAN_MOTION_DDOT":"0.0000000000000","GP_ID":"234574736","RCS_SIZE":"LARGE","COUNTRY_CODE":"US","EPHEMERIS_TYPE":"0"},{"ECCENTRICITY":"0.00013780","APOAPSIS":"540.713","SEMIMAJOR_AXIS":"6917.895","TIME_SYSTEM":"UTC","PERIAPSIS":"538.807","MEAN_MOTION_DOT":"0.00000355","SITE":"AFETR","LAUNCH_DATE":"2022-02-21","CENTER_NAME":"EARTH","REV_AT_EPOCH":"7570","TLE_LINE1":"1 51732U 22016U   23177.68610185  .00000355  00000-0  40379-4 0  9994","OBJECT_TYPE":"PAYLOAD","RCS_SIZE":"LARGE","COUNTRY_CODE":"US","EPHEMERIS_TYPE":"0","INCLINATION":"53.2184","OBJECT_ID":"2022-016U","MEAN_MOTION_DDOT":"0.0000000000000","MEAN_ELEMENT_THEORY":"SGP4","GP_ID":"234574729","TLE_LINE2":"2 51732  53.2184  69.9518 0001378  97.1881 262.9268 15.08835165 75700","RA_OF_ASC_NODE":"69.9518","FILE":"3943679","CLASSIFICATION_TYPE":"U","BSTAR":"0.00004037900000","EPOCH":"2023-06-26T16:27:59.199840","REF_FRAME":"TEME","DECAY_DATE":null,"NORAD_CAT_ID":"51732","MEAN_ANOMALY":"262.9268","OBJECT_NAME":"STARLINK-3518","ELEMENT_SET_NO":"999","ARG_OF_PERICENTER":"97.1881","PERIOD":"95.438","MEAN_MOTION":"15.08835165"},{"MEAN_MOTION":"15.08833275","PERIOD":"95.438","NORAD_CAT_ID":"51733","MEAN_ANOMALY":"265.9453","DECAY_DATE":null,"ARG_OF_PERICENTER":"94.1657","ELEMENT_SET_NO":"999","OBJECT_NAME":"STARLINK-3525","REF_FRAME":"TEME","CLASSIFICATION_TYPE":"U","TLE_LINE2":"2 51733  53.2156  69.9238 0001028  94.1657 265.9453 15.08833275 75629","RA_OF_ASC_NODE":"69.9238","FILE":"3943679","EPOCH":"2023-06-26T16:39:57.903552","BSTAR":"0.00008294400000","OBJECT_ID":"2022-016V","INCLINATION":"53.2156","GP_ID":"234574236","MEAN_ELEMENT_THEORY":"SGP4","MEAN_MOTION_DDOT":"0.0000000000000","COUNTRY_CODE":"US","RCS_SIZE":"LARGE","EPHEMERIS_TYPE":"0","OBJECT_TYPE":"PAYLOAD","TLE_LINE1":"1 51733U 22016V   23177.69442018  .00001032  00000-0  82944-4 0  9991","REV_AT_EPOCH":"7562","CENTER_NAME":"EARTH","LAUNCH_DATE":"2022-02-21","SEMIMAJOR_AXIS":"6917.901","TIME_SYSTEM":"UTC","APOAPSIS":"540.477","ECCENTRICITY":"0.00010280","SITE":"AFETR","MEAN_MOTION_DOT":"0.00001032","PERIAPSIS":"539.055"}];
